NORAD_CAT_ID,OBJECT_NAME,OBJECT_TYPE,EPOCH,MEAN_MOTION,ECCENTRICITY,INCLINATION,RA_OF_ASC_NODE,ARG_OF_PERICENTER,MEAN_ANOMALY,BSTAR,MEAN_MOTION_DOT,MEAN_MOTION_DDOT,TLE_LINE0,TLE_LINE1,TLE_LINE2,SEMIMAJOR_AXIS,PERIOD,APOGEE,PERIGEE,DECAYED
55422.0,STARLINK-5006,PAYLOAD,2023-11-18 23:11:31,14.98361841,0.0002869,70.0001,46.601,269.1816,90.9014,-0.00051553,-6.244e-05,0.0,0 STARLINK-5006,1 55422U 23014AH  23322.96633919 -.00006244  00000-0 -51553-3 0  9996,2 55422  70.0001  46.6010 0002869 269.1816  90.9014 14.98361841 44548,6950.094,96.105,573.953,569.965,0.0
55422.0,STARLINK-5006,PAYLOAD,2023-11-19 12:00:36,14.98329789,0.0002978,70.0001,45.2537,264.5292,95.5527,3.1759e-05,2.86e-06,0.0,0 STARLINK-5006,1 55422U 23014AH  23323.50042407  .00000286  00000-0  31759-4 0  9998,2 55422  70.0001  45.2537 0002978 264.5292  95.5527 14.98329789 44629,6950.194,96.107,574.128,569.989,0.0
55422.0,STARLINK-5006,PAYLOAD,2023-11-19 13:36:44,14.9832999,0.0003042,70.0001,45.0854,267.464,92.6171,3.4643e-05,3.2e-06,0.0,0 STARLINK-5006,1 55422U 23014AH  23323.56718392  .00000320  00000-0  34643-4 0  9991,2 55422  70.0001  45.0854 0003042 267.4640  92.6171 14.98329990 45573,6950.193,96.107,574.172,569.944,0.0
55422.0,STARLINK-5006,PAYLOAD,2023-11-19 15:12:52,14.98331606,0.0002864,70.0001,44.9172,263.0781,97.0053,2.1686e-05,1.66e-06,0.0,0 STARLINK-5006,1 55422U 23014AH  23323.63394320  .00000166  00000-0  21686-4 0  9991,2 55422  70.0001  44.9172 0002864 263.0781  97.0053 14.98331606 45589,6950.188,96.107,574.043,570.062,0.0
55422.0,STARLINK-5006,PAYLOAD,2023-11-20 13:38:45,14.98331185,0.000282,70.0013,42.5617,254.6158,105.469,4.0768e-05,3.94e-06,0.0,0 STARLINK-5006,1 55422U 23014AH  23324.56858078  .00000394  00000-0  40768-4 0  9994,2 55422  70.0013  42.5617 0002820 254.6158 105.4690 14.98331185 45725,6950.189,96.107,574.014,570.094,0.0
55422.0,STARLINK-5006,PAYLOAD,2023-11-20 15:14:53,14.9833211,0.000284,70.0012,42.3935,256.2315,103.8528,5.0413e-05,5.09e-06,0.0,0 STARLINK-5006,1 55422U 23014AH  23324.63533990  .00000509  00000-0  50413-4 0  9991,2 55422  70.0012  42.3935 0002840 256.2315 103.8528 14.98332110 44797,6950.186,96.107,574.025,570.078,0.0
55422.0,STARLINK-5006,PAYLOAD,2023-11-20 23:15:32,14.98366821,0.0003065,70.001,41.5523,258.7839,101.2975,-0.00051787,-6.273e-05,0.0,0 STARLINK-5006,1 55422U 23014AH  23324.96912799 -.00006273  00000-0 -51787-3 0  9995,2 55422  70.0010  41.5523 0003065 258.7839 101.2975 14.98366821 44847,6950.079,96.105,574.074,569.814,0.0
55422.0,STARLINK-5006,PAYLOAD,2023-11-21 12:04:38,14.98334176,0.0002881,70.0013,40.2056,264.7539,95.3291,2.5259e-05,2.08e-06,0.0,0 STARLINK-5006,1 55422U 23014AH  23325.50321874  .00000208  00000-0  25259-4 0  9990,2 55422  70.0013  40.2056 0002881 264.7539  95.3291 14.98334176 44927,6950.18,96.107,574.047,570.043,0.0
55422.0,STARLINK-5006,PAYLOAD,2023-11-21 13:40:45,14.98340815,0.0003048,70.002,40.0375,253.8638,106.2186,9.7155e-05,1.067e-05,0.0,0 STARLINK-5006,1 55422U 23014AH  23325.56997170  .00001067  00000-0  97155-4 0  9992,2 55422  70.0020  40.0375 0003048 253.8638 106.2186 14.98340815 45879,6950.159,96.106,574.143,569.906,0.0
55422.0,STARLINK-5006,PAYLOAD,2023-11-21 15:16:54,14.98333068,0.0003153,70.0014,39.8686,258.0822,101.9983,4.8513e-05,4.86e-06,0.0,0 STARLINK-5006,1 55422U 23014AH  23325.63673714  .00000486  00000-0  48513-4 0  9993,2 55422  70.0014  39.8686 0003153 258.0822 101.9983 14.98333068 45882,6950.183,96.107,574.24,569.857,0.0
55422.0,STARLINK-5006,PAYLOAD,2023-11-22 12:06:38,14.9832681,0.000248,70.0012,37.6797,251.9842,108.1047,0.00019929,2.286e-05,0.0,0 STARLINK-5006,1 55422U 23014AH  23326.50461671  .00002286  00000-0  19929-3 0  9995,2 55422  70.0012  37.6797 0002480 251.9842 108.1047 14.98326810 45073,6950.203,96.107,573.791,570.344,0.0
55422.0,STARLINK-5006,PAYLOAD,2023-11-22 13:42:46,14.98336737,0.0002367,70.0016,37.5116,255.6557,104.434,7.9136e-05,8.52e-06,0.0,0 STARLINK-5006,1 55422U 23014AH  23326.57137262  .00000852  00000-0  79136-4 0  9992,2 55422  70.0016  37.5116 0002367 255.6557 104.4340 14.98336737 46029,6950.172,96.107,573.682,570.392,0.0
55422.0,STARLINK-5006,PAYLOAD,2023-11-22 15:18:54,14.98338397,0.0002447,70.0018,37.3436,262.7432,97.3449,8.2951e-05,8.97e-06,0.0,0 STARLINK-5006,1 55422U 23014AH  23326.63813130  .00000897  00000-0  82951-4 0  9992,2 55422  70.0018  37.3436 0002447 262.7432  97.3449 14.98338397 45094,6950.167,96.106,573.733,570.331,0.0
55422.0,STARLINK-5006,PAYLOAD,2023-11-23 12:08:39,14.98337316,0.0002572,70.0005,35.1547,259.244,100.8429,-0.00019074,-2.368e-05,0.0,0 STARLINK-5006,1 55422U 23014AH  23327.50601750 -.00002368  00000-0 -19074-3 0  9994,2 55422  70.0005  35.1547 0002572 259.2440 100.8429 14.98337316 45221,6950.17,96.107,573.823,570.248,0.0
55422.0,STARLINK-5006,PAYLOAD,2023-11-23 13:44:47,14.98340733,0.0002516,70.0012,34.9878,253.5218,106.5665,-0.00027119,-3.328e-05,0.0,0 STARLINK-5006,1 55422U 23014AH  23327.57277688 -.00003328  00000-0 -27119-3 0  9996,2 55422  70.0012  34.9878 0002516 253.5218 106.5665 14.98340733 46178,6950.16,96.106,573.773,570.276,0.0
55422.0,STARLINK-5006,PAYLOAD,2023-11-24 10:34:33,14.98327118,0.0002582,70.0009,32.7996,260.1648,99.922,-0.00014519,-1.825e-05,0.0,0 STARLINK-5006,1 55422U 23014AH  23328.44066478 -.00001825  00000-0 -14519-3 0  9996,2 55422  70.0009  32.7996 0002582 260.1648  99.9220 14.98327118 45369,6950.202,96.107,573.861,570.272,0.0
55422.0,STARLINK-5006,PAYLOAD,2023-11-24 13:46:49,14.98323945,0.0002862,70.0006,32.4622,266.2215,93.8617,-8.7127e-05,-1.132e-05,0.0,0 STARLINK-5006,1 55422U 23014AH  23328.57418595 -.00001132  00000-0 -87127-4 0  9998,2 55422  70.0006  32.4622 0002862 266.2215  93.8617 14.98323945 46321,6950.212,96.107,574.066,570.087,0.0
55422.0,STARLINK-5006,PAYLOAD,2023-11-24 15:22:57,14.98323168,0.0002739,70.0007,32.294,262.1883,97.8965,-6.1129e-05,-8.22e-06,0.0,0 STARLINK-5006,1 55422U 23014AH  23328.64094603 -.00000822  00000-0 -61129-4 0  9995,2 55422  70.0007  32.2940 0002739 262.1883  97.8965 14.98323168 46330,6950.214,96.107,573.983,570.175,0.0
55422.0,STARLINK-5006,PAYLOAD,2023-11-25 13:48:49,14.98332272,0.0002354,70.0016,29.9396,252.8246,107.2656,0.00012285,1.373e-05,0.0,0 STARLINK-5006,1 55422U 23014AH  23329.57557700  .00001373  00000-0  12285-3 0  9998,2 55422  70.0016  29.9396 0002354 252.8246 107.2656 14.98332272 46474,6950.186,96.107,573.687,570.415,0.0
55422.0,STARLINK-5006,PAYLOAD,2023-11-26 10:38:34,14.98334379,0.0002349,70.0013,27.7502,252.0313,108.059,0.00022146,2.551e-05,0.0,0 STARLINK-5006,1 55422U 23014AH  23330.44345075  .00002551  00000-0  22146-3 0  9992,2 55422  70.0013  27.7502 0002349 252.0313 108.0590 14.98334379 45663,6950.179,96.107,573.677,570.412,0.0
55422.0,STARLINK-5006,PAYLOAD,2023-11-26 13:50:50,14.98335627,0.0002212,70.0018,27.4141,254.2857,105.8059,0.00021476,2.471e-05,0.0,0 STARLINK-5006,1 55422U 23014AH  23330.57696994  .00002471  00000-0  21476-3 0  9991,2 55422  70.0018  27.4141 0002212 254.2857 105.8059 14.98335627 46629,6950.175,96.107,573.578,570.503,0.0
55422.0,STARLINK-5006,PAYLOAD,2023-11-27 04:16:04,14.98323902,0.0002371,70.0068,25.8973,243.7191,116.3725,-0.00011742,-1.493e-05,0.0,0 STARLINK-5006,1 55422U 23014AH  23331.17782595 -.00001493  00000-0 -11742-3 0  9991,2 55422  70.0068  25.8973 0002371 243.7191 116.3725 14.98323902 45774,6950.212,96.107,573.725,570.429,0.0
55422.0,STARLINK-5006,PAYLOAD,2023-11-27 12:16:46,14.98305817,0.0002086,70.0027,25.0577,236.1761,123.9199,-0.00029422,-3.599e-05,0.0,0 STARLINK-5006,1 55422U 23014AH  23331.51164462 -.00003599  00000-0 -29422-3 0  9999,2 55422  70.0027  25.0577 0002086 236.1761 123.9199 14.98305817 45823,6950.268,96.109,573.583,570.683,0.0
55422.0,STARLINK-5006,PAYLOAD,2023-11-27 13:52:54,14.98307786,0.0002117,70.002,24.8881,260.1595,99.9325,-0.0002783,-3.41e-05,0.0,0 STARLINK-5006,1 55422U 23014AH  23331.57840443 -.00003410  00000-0 -27830-3 0  9998,2 55422  70.0020  24.8881 0002117 260.1595  99.9325 14.98307786 46773,6950.262,96.108,573.598,570.655,0.0
55422.0,STARLINK-5006,PAYLOAD,2023-11-28 12:18:44,14.98378661,0.0001622,70.0019,22.5322,229.834,130.2678,-0.000966,-0.00011614,0.0,0 STARLINK-5006,1 55422U 23014AH  23332.51301992 -.00011614  00000-0 -96600-3 0  9990,2 55422  70.0019  22.5322 0001622 229.8340 130.2678 14.98378661 45977,6950.042,96.104,573.035,570.78,0.0
55422.0,STARLINK-5006,PAYLOAD,2023-11-28 13:54:52,14.98380259,0.0001082,70.0026,22.3605,277.1126,82.991,-0.00088952,-0.00010703,0.0,0 STARLINK-5006,1 55422U 23014AH  23332.57977791 -.00010703  00000-0 -88952-3 0  9991,2 55422  70.0026  22.3605 0001082 277.1126  82.9910 14.98380259 46929,6950.037,96.104,572.654,571.15,0.0
55422.0,STARLINK-5006,PAYLOAD,2023-11-29 04:20:06,14.98318936,0.0002435,70.0001,20.8457,272.9222,87.1658,0.00031469,3.663e-05,0.0,0 STARLINK-5006,1 55422U 23014AH  23333.18062513  .00003663  00000-0  31469-3 0  9992,2 55422  70.0001  20.8457 0002435 272.9222  87.1658 14.98318936 46078,6950.227,96.108,573.784,570.4,0.0
55422.0,STARLINK-5006,PAYLOAD,2023-11-29 12:20:46,14.98325792,0.0002601,70.0006,20.0046,275.8664,84.2198,0.00034092,3.977e-05,0.0,0 STARLINK-5006,1 55422U 23014AH  23333.51442199  .00003977  00000-0  34092-3 0  9994,2 55422  70.0006  20.0046 0002601 275.8664  84.2198 14.98325792 47061,6950.206,96.107,573.879,570.263,0.0
55422.0,STARLINK-5006,PAYLOAD,2023-11-30 02:45:58,14.98335042,0.0002229,70.0016,18.491,264.3533,95.7371,0.00012299,1.375e-05,0.0,0 STARLINK-5006,1 55422U 23014AH  23334.11526123  .00001375  00000-0  12299-3 0  9996,2 55422  70.0016  18.4910 0002229 264.3533  95.7371 14.98335042 46212,6950.177,96.107,573.591,570.493,0.0
55422.0,STARLINK-5006,PAYLOAD,2023-12-01 10:48:40,14.98332718,0.0002418,70.0009,15.1243,251.5393,108.5504,-8.7819e-05,-1.141e-05,0.0,0 STARLINK-5006,1 55422U 23014AH  23335.45046333 -.00001141  00000-0 -87819-4 0  9998,2 55422  70.0009  15.1243 0002418 251.5393 108.5504 14.98332718 46419,6950.184,96.107,573.73,570.369,0.0
